{
  "type": "FeatureCollection",
  "features": [
    {
      "type": "Feature",
      "properties": {
        "norad_id": 34299,
        "name": "COSMOS 2251 DEB",
        "group": "cosmos-2251-debris",
        "lat": -49.75409259194237,
        "lon": -165.3384103494105,
        "alt_km": 412.6422818971414,
        "timestamp": "2025-12-03T17:47:51.112102+00:00",
        "meta_object_name": "COSMOS 2251 DEB",
        "meta_object_id": "1993-036MV",
        "meta_epoch": "2025-12-03T02:56:38.084928",
        "meta_mean_motion": 15.5874635,
        "meta_eccentricity": 0.00249226,
        "meta_inclination": 73.9827,
        "meta_ra_of_asc_node": 356.2016,
        "meta_arg_of_pericenter": 62.6984,
        "meta_mean_anomaly": 297.6767,
        "meta_ephemeris_type": 0,
        "meta_classification_type": "U",
        "meta_norad_cat_id": 34299,
        "meta_element_set_no": 999,
        "meta_rev_at_epoch": 88860,
        "meta_bstar": 0.0062172696,
        "meta_mean_motion_dot": 0.00517253,
        "meta_mean_motion_ddot": 0,
        "tle_line1": "1 34299U 93036MV  25337.12266302  .00517253  00000+0  62173-2 0  9993",
        "tle_line2": "2 34299  73.9827 356.2016 0024922  62.6984 297.6767 15.58746350888600"
      },
      "geometry": {
        "type": "Point",
        "coordinates": [
          -165.3384103494105,
          -49.75409259194237
        ]
      }
    },
    {
      "type": "Feature",
      "properties": {
        "norad_id": 34301,
        "name": "COSMOS 2251 DEB",
        "group": "cosmos-2251-debris",
        "lat": 40.718344943581066,
        "lon": -161.13200858839855,
        "alt_km": 621.8653519428171,
        "timestamp": "2025-12-03T17:47:51.112113+00:00",
        "meta_object_name": "COSMOS 2251 DEB",
        "meta_object_id": "1993-036MX",
        "meta_epoch": "2025-12-03T00:29:19.044384",
        "meta_mean_motion": 14.837811,
        "meta_eccentricity": 0.00124006,
        "meta_inclination": 74.0064,
        "meta_ra_of_asc_node": 186.0071,
        "meta_arg_of_pericenter": 244.9578,
        "meta_mean_anomaly": 266.9815,
        "meta_ephemeris_type": 0,
        "meta_classification_type": "U",
        "meta_norad_cat_id": 34301,
        "meta_element_set_no": 999,
        "meta_rev_at_epoch": 88256,
        "meta_bstar": 0.0031794263,
        "meta_mean_motion_dot": 0.00026438,
        "meta_mean_motion_ddot": 0,
        "tle_line1": "1 34301U 93036MX  25337.02035931  .00026438  00000+0  31794-2 0  9993",
        "tle_line2": "2 34301  74.0064 186.0071 0012400 244.9578 266.9815 14.83781100882562"
      },
      "geometry": {
        "type": "Point",
        "coordinates": [
          -161.13200858839855,
          40.718344943581066
        ]
      }
    },
    {
      "type": "Feature",
      "properties": {
        "norad_id": 34302,
        "name": "COSMOS 2251 DEB",
        "group": "cosmos-2251-debris",
        "lat": 32.86297464726273,
        "lon": -50.511455090620174,
        "alt_km": 805.5966278639135,
        "timestamp": "2025-12-03T17:47:51.112123+00:00",
        "meta_object_name": "COSMOS 2251 DEB",
        "meta_object_id": "1993-036MY",
        "meta_epoch": "2025-12-03T10:35:11.637888",
        "meta_mean_motion": 14.39272787,
        "meta_eccentricity": 0.0078201,
        "meta_inclination": 74.1772,
        "meta_ra_of_asc_node": 140.5943,
        "meta_arg_of_pericenter": 358.5629,
        "meta_mean_anomaly": 30.3822,
        "meta_ephemeris_type": 0,
        "meta_classification_type": "U",
        "meta_norad_cat_id": 34302,
        "meta_element_set_no": 999,
        "meta_rev_at_epoch": 87587,
        "meta_bstar": 0.0009298,
        "meta_mean_motion_dot": 2.966e-05,
        "meta_mean_motion_ddot": 0,
        "tle_line1": "1 34302U 93036MY  25337.44110692  .00002966  00000+0  92980-3 0  9993",
        "tle_line2": "2 34302  74.1772 140.5943 0078201 358.5629  30.3822 14.39272787875877"
      },
      "geometry": {
        "type": "Point",
        "coordinates": [
          -50.511455090620174,
          32.86297464726273
        ]
      }
    },
    {
      "type": "Feature",
      "properties": {
        "norad_id": 34303,
        "name": "COSMOS 2251 DEB",
        "group": "cosmos-2251-debris",
        "lat": -20.48417911526213,
        "lon": 131.24686894850717,
        "alt_km": 756.7310340373542,
        "timestamp": "2025-12-03T17:47:51.112134+00:00",
        "meta_object_name": "COSMOS 2251 DEB",
        "meta_object_id": "1993-036MZ",
        "meta_epoch": "2025-12-03T07:32:18.307392",
        "meta_mean_motion": 14.54253406,
        "meta_eccentricity": 0.0134901,
        "meta_inclination": 74.0049,
        "meta_ra_of_asc_node": 305.9052,
        "meta_arg_of_pericenter": 86.6727,
        "meta_mean_anomaly": 36.1699,
        "meta_ephemeris_type": 0,
        "meta_classification_type": "U",
        "meta_norad_cat_id": 34303,
        "meta_element_set_no": 999,
        "meta_rev_at_epoch": 87825,
        "meta_bstar": 0.0015443,
        "meta_mean_motion_dot": 7.368e-05,
        "meta_mean_motion_ddot": 0,
        "tle_line1": "1 34303U 93036MZ  25337.31410078  .00007368  00000+0  15443-2 0  9990",
        "tle_line2": "2 34303  74.0049 305.9052 0134901  86.6727  36.1699 14.54253406878255"
      },
      "geometry": {
        "type": "Point",
        "coordinates": [
          131.24686894850717,
          -20.48417911526213
        ]
      }
    },
    {
      "type": "Feature",
      "properties": {
        "norad_id": 34304,
        "name": "COSMOS 2251 DEB",
        "group": "cosmos-2251-debris",
        "lat": 50.33953521570389,
        "lon": -61.04140455155776,
        "alt_km": 842.156526481499,
        "timestamp": "2025-12-03T17:47:51.112144+00:00",
        "meta_object_name": "COSMOS 2251 DEB",
        "meta_object_id": "1993-036NA",
        "meta_epoch": "2025-12-03T12:27:18.270144",
        "meta_mean_motion": 14.37720668,
        "meta_eccentricity": 0.0128863,
        "meta_inclination": 74.0119,
        "meta_ra_of_asc_node": 139.6011,
        "meta_arg_of_pericenter": 279.2722,
        "meta_mean_anomaly": 136.4683,
        "meta_ephemeris_type": 0,
        "meta_classification_type": "U",
        "meta_norad_cat_id": 34304,
        "meta_element_set_no": 999,
        "meta_rev_at_epoch": 87164,
        "meta_bstar": 0.0018724,
        "meta_mean_motion_dot": 6.175e-05,
        "meta_mean_motion_ddot": 0,
        "tle_line1": "1 34304U 93036NA  25337.51896146  .00006175  00000+0  18724-2 0  9997",
        "tle_line2": "2 34304  74.0119 139.6011 0128863 279.2722 136.4683 14.37720668871649"
      },
      "geometry": {
        "type": "Point",
        "coordinates": [
          -61.04140455155776,
          50.33953521570389
        ]
      }
    },
    {
      "type": "Feature",
      "properties": {
        "norad_id": 34307,
        "name": "COSMOS 2251 DEB",
        "group": "cosmos-2251-debris",
        "lat": 24.956296608796052,
        "lon": 139.90844977972404,
        "alt_km": 765.3339558229272,
        "timestamp": "2025-12-03T17:47:51.112155+00:00",
        "meta_object_name": "COSMOS 2251 DEB",
        "meta_object_id": "1993-036ND",
        "meta_epoch": "2025-12-03T10:42:20.312352",
        "meta_mean_motion": 13.54301619,
        "meta_eccentricity": 0.0392365,
        "meta_inclination": 74.0531,
        "meta_ra_of_asc_node": 328.0288,
        "meta_arg_of_pericenter": 161.0045,
        "meta_mean_anomaly": 353.2249,
        "meta_ephemeris_type": 0,
        "meta_classification_type": "U",
        "meta_norad_cat_id": 34307,
        "meta_element_set_no": 999,
        "meta_rev_at_epoch": 82736,
        "meta_bstar": 0.0007804,
        "meta_mean_motion_dot": 8.49e-06,
        "meta_mean_motion_ddot": 0,
        "tle_line1": "1 34307U 93036ND  25337.44606843  .00000849  00000+0  78040-3 0  9995",
        "tle_line2": "2 34307  74.0531 328.0288 0392365 161.0045 353.2249 13.54301619827362"
      },
      "geometry": {
        "type": "Point",
        "coordinates": [
          139.90844977972404,
          24.956296608796052
        ]
      }
    },
    {
      "type": "Feature",
      "properties": {
        "norad_id": 34313,
        "name": "COSMOS 2251 DEB",
        "group": "cosmos-2251-debris",
        "lat": 42.31207654153913,
        "lon": -20.45868471277675,
        "alt_km": 506.78149333715464,
        "timestamp": "2025-12-03T17:47:51.112165+00:00",
        "meta_object_name": "COSMOS 2251 DEB",
        "meta_object_id": "1993-036NK",
        "meta_epoch": "2025-12-03T09:41:15.431712",
        "meta_mean_motion": 15.16785332,
        "meta_eccentricity": 0.0010505,
        "meta_inclination": 73.9718,
        "meta_ra_of_asc_node": 325.0779,
        "meta_arg_of_pericenter": 93.5622,
        "meta_mean_anomaly": 266.6775,
        "meta_ephemeris_type": 0,
        "meta_classification_type": "U",
        "meta_norad_cat_id": 34313,
        "meta_element_set_no": 999,
        "meta_rev_at_epoch": 88923,
        "meta_bstar": 0.0044775,
        "meta_mean_motion_dot": 0.0008914,
        "meta_mean_motion_ddot": 0,
        "tle_line1": "1 34313U 93036NK  25337.40365083  .00089140  00000+0  44775-2 0  9994",
        "tle_line2": "2 34313  73.9718 325.0779 0010505  93.5622 266.6775 15.16785332889232"
      },
      "geometry": {
        "type": "Point",
        "coordinates": [
          -20.45868471277675,
          42.31207654153913
        ]
      }
    }
  ]
}